NORAD_CAT_ID,OBJECT_NAME,OBJECT_TYPE,EPOCH,MEAN_MOTION,ECCENTRICITY,INCLINATION,RA_OF_ASC_NODE,ARG_OF_PERICENTER,MEAN_ANOMALY,BSTAR,MEAN_MOTION_DOT,MEAN_MOTION_DDOT,TLE_LINE0,TLE_LINE1,TLE_LINE2,SEMIMAJOR_AXIS,PERIOD,APOGEE,PERIGEE,DECAYED
53636.0,STARLINK-4586,PAYLOAD,2023-03-26 03:33:27,15.08830985,0.000135,53.218,30.2002,108.9468,251.1671,-0.0001638,-2.893e-05,0.0,0 STARLINK-4586,1 53636U 22104BA  23085.14823154 -.00002893  00000-0 -16380-3 0  9993,2 53636  53.2180  30.2002 0001350 108.9468 251.1671 15.08830985 32236,6917.908,95.438,540.707,538.839,0.0
53636.0,STARLINK-4586,PAYLOAD,2023-03-26 06:44:13,15.08830727,0.0001164,53.2177,29.6044,101.3739,258.7384,7.405e-05,8.91e-06,0.0,0 STARLINK-4586,1 53636U 22104BA  23085.28071289  .00000891  00000-0  74050-4 0  9995,2 53636  53.2177  29.6044 0001164 101.3739 258.7384 15.08830727 33274,6917.909,95.438,540.579,538.968,0.0
53636.0,STARLINK-4586,PAYLOAD,2023-03-27 04:59:37,15.08837688,0.0001284,53.2176,25.4393,88.3928,271.7212,0.00015067,2.111e-05,0.0,0 STARLINK-4586,1 53636U 22104BA  23086.20807675  .00002111  00000-0  15067-3 0  9993,2 53636  53.2176  25.4393 0001284  88.3928 271.7212 15.08837688 32391,6917.887,95.438,540.641,538.864,0.0
53636.0,STARLINK-4586,PAYLOAD,2023-03-28 04:50:24,15.08876228,0.0001337,53.2164,20.9807,83.741,276.3734,0.0014921,0.00023562,0.0,0 STARLINK-4586,1 53636U 22104BA  23087.20167264  .00023562  00000-0  14921-2 0  9997,2 53636  53.2164  20.9807 0001337  83.7410 276.3734 15.08876228 32542,6917.77,95.435,540.56,538.71,0.0
53636.0,STARLINK-4586,PAYLOAD,2023-03-28 22:19:39,15.08847972,0.0001342,53.2163,17.7129,52.8371,307.2743,0.0003257,4.901e-05,0.0,0 STARLINK-4586,1 53636U 22104BA  23087.93031643  .00004901  00000-0  32570-3 0  9995,2 53636  53.2163  17.7129 0001342  52.8371 307.2743 15.08847972 32651,6917.856,95.437,540.649,538.793,0.0
53636.0,STARLINK-4586,PAYLOAD,2023-03-29 01:30:25,15.08854692,0.000137,53.2165,17.1179,62.3787,297.7344,0.0006475,0.00010036,0.0,0 STARLINK-4586,1 53636U 22104BA  23088.06279520  .00010036  00000-0  64750-3 0  9999,2 53636  53.2165  17.1179 0001370  62.3787 297.7344 15.08854692 33692,6917.835,95.437,540.648,538.753,0.0
53636.0,STARLINK-4586,PAYLOAD,2023-03-30 04:31:58,15.08852494,0.000146,53.2165,12.0575,86.2544,273.8616,0.00093025,0.00014553,0.0,0 STARLINK-4586,1 53636U 22104BA  23089.18887370  .00014553  00000-0  93025-3 0  9996,2 53636  53.2165  12.0575 0001460  86.2544 273.8616 15.08852494 32843,6917.842,95.437,540.717,538.697,0.0
53636.0,STARLINK-4586,PAYLOAD,2023-03-31 04:22:45,15.08859315,9.84e-05,53.2176,7.5996,98.5709,261.5395,0.00056853,8.777e-05,0.0,0 STARLINK-4586,1 53636U 22104BA  23090.18247265  .00008777  00000-0  56853-3 0  9990,2 53636  53.2176   7.5996 0000984  98.5709 261.5395 15.08859315 32993,6917.821,95.436,540.367,539.006,0.0
53636.0,STARLINK-4586,PAYLOAD,2023-03-31 18:41:14,15.08836226,9.44e-05,53.2169,4.9143,99.023,261.0869,-1.0745e-06,-3.05e-06,0.0,0 STARLINK-4586,1 53636U 22104BA  23090.77863853 -.00000305  00000-0 -10745-5 0  9995,2 53636  53.2169   4.9143 0000944  99.0230 261.0869 15.08836226 33089,6917.892,95.438,540.41,539.104,0.0
53636.0,STARLINK-4586,PAYLOAD,2023-04-01 04:13:33,15.08837433,0.0001097,53.217,3.1369,91.3148,268.797,6.0835e-05,6.8e-06,0.0,0 STARLINK-4586,1 53636U 22104BA  23091.17608047  .00000680  00000-0  60835-4 0  9990,2 53636  53.2170   3.1369 0001097  91.3148 268.7970 15.08837433 34163,6917.888,95.438,540.512,538.994,0.0
53636.0,STARLINK-4586,PAYLOAD,2023-04-02 02:28:57,15.08840941,8.89e-05,53.2177,358.9769,74.5936,285.5154,0.00016678,2.368e-05,0.0,0 STARLINK-4586,1 53636U 22104BA  23092.10344533  .00002368  00000-0  16678-3 0  9991,2 53636  53.2177 358.9769 0000889  74.5936 285.5154 15.08840941 33282,6917.878,95.437,540.358,539.128,0.0
53636.0,STARLINK-4586,PAYLOAD,2023-04-02 21:33:36,15.08833351,0.0001263,53.2182,355.4123,64.4654,295.6469,0.00010572,1.395e-05,0.0,0 STARLINK-4586,1 53636U 22104BA  23092.89833501  .00001395  00000-0  10572-3 0  9991,2 53636  53.2182 355.4123 0001263  64.4654 295.6469 15.08833351 34421,6917.901,95.438,540.639,538.892,0.0
53636.0,STARLINK-4586,PAYLOAD,2023-04-03 03:55:08,15.08850483,0.000104,53.2178,354.2198,79.8105,280.3005,0.00051368,7.899e-05,0.0,0 STARLINK-4586,1 53636U 22104BA  23093.16328916  .00007899  00000-0  51368-3 0  9994,2 53636  53.2178 354.2198 0001040  79.8105 280.3005 15.08850483 33442,6917.848,95.437,540.433,538.994,0.0
53636.0,STARLINK-4586,PAYLOAD,2023-04-03 21:24:22,15.08842162,0.0001137,53.217,350.9491,83.673,276.4391,8.4554e-05,1.058e-05,0.0,0 STARLINK-4586,1 53636U 22104BA  23093.89193162  .00001058  00000-0  84554-4 0  9992,2 53636  53.2170 350.9491 0001137  83.6730 276.4391 15.08842162 34571,6917.874,95.437,540.525,538.952,0.0
53636.0,STARLINK-4586,PAYLOAD,2023-04-04 02:10:31,15.08856056,0.0001158,53.2182,350.0572,80.9004,279.2119,0.00035311,5.339e-05,0.0,0 STARLINK-4586,1 53636U 22104BA  23094.09064572  .00005339  00000-0  35311-3 0  9999,2 53636  53.2182 350.0572 0001158  80.9004 279.2119 15.08856056 33588,6917.831,95.437,540.497,538.895,0.0
53636.0,STARLINK-4586,PAYLOAD,2023-04-04 21:15:10,15.08833964,8.53e-05,53.2166,346.4884,86.0027,274.1063,-0.00010363,-1.936e-05,0.0,0 STARLINK-4586,1 53636U 22104BA  23094.88553341 -.00001936  00000-0 -10363-3 0  9994,2 53636  53.2166 346.4884 0000853  86.0027 274.1063 15.08833964 34720,6917.899,95.438,540.354,539.174,0.0
53636.0,STARLINK-4586,PAYLOAD,2023-04-05 02:01:19,15.08842796,9.92e-05,53.2168,345.5957,99.5906,260.5198,3.7171e-05,3.04e-06,0.0,0 STARLINK-4586,1 53636U 22104BA  23095.08425144  .00000304  00000-0  37171-4 0  9999,2 53636  53.2168 345.5957 0000992  99.5906 260.5198 15.08842796 33733,6917.872,95.437,540.423,539.051,0.0
53636.0,STARLINK-4586,PAYLOAD,2023-04-05 21:05:57,15.08845386,0.0001159,53.2171,342.0304,75.8139,284.2982,4.0569e-05,3.58e-06,0.0,0 STARLINK-4586,1 53636U 22104BA  23095.87913404  .00000358  00000-0  40569-4 0  9991,2 53636  53.2171 342.0304 0001159  75.8139 284.2982 15.08845386 34874,6917.864,95.437,540.531,538.927,0.0
53636.0,STARLINK-4586,PAYLOAD,2023-04-06 01:52:06,15.08849905,0.000113,53.2165,341.1354,84.9344,275.1777,0.00025842,3.828e-05,0.0,0 STARLINK-4586,1 53636U 22104BA  23096.07785177  .00003828  00000-0  25842-3 0  9999,2 53636  53.2165 341.1354 0001130  84.9344 275.1777 15.08849905 34906,6917.85,95.437,540.497,538.933,0.0
53636.0,STARLINK-4586,PAYLOAD,2023-04-06 22:32:07,15.08844346,0.0001007,53.2159,337.2732,59.45,300.6591,0.00015112,2.118e-05,0.0,0 STARLINK-4586,1 53636U 22104BA  23096.93897362  .00002118  00000-0  15112-3 0  9994,2 53636  53.2159 337.2732 0001007  59.4500 300.6591 15.08844346 35036,6917.867,95.437,540.429,539.035,0.0
53636.0,STARLINK-4586,PAYLOAD,2023-04-08 01:33:40,15.08849961,9.52e-05,53.2163,332.2146,83.3763,276.7337,8.9346e-05,1.135e-05,0.0,0 STARLINK-4586,1 53636U 22104BA  23098.06504706  .00001135  00000-0  89346-4 0  9996,2 53636  53.2163 332.2146 0000952  83.3763 276.7337 15.08849961 34184,6917.85,95.437,540.374,539.056,0.0
53636.0,STARLINK-4586,PAYLOAD,2023-04-08 19:02:55,15.08835506,0.0001213,53.2171,328.9415,96.1811,263.9319,3.7863e-05,3.15e-06,0.0,0 STARLINK-4586,1 53636U 22104BA  23098.79369605  .00000315  00000-0  37863-4 0  9999,2 53636  53.2171 328.9415 0001213  96.1811 263.9319 15.08835506 34291,6917.894,95.438,540.598,538.92,0.0
53636.0,STARLINK-4586,PAYLOAD,2023-04-08 23:49:04,15.088384,0.0001014,53.2165,328.0509,80.2394,279.8713,7.8526e-05,9.62e-06,0.0,0 STARLINK-4586,1 53636U 22104BA  23098.99241538  .00000962  00000-0  78526-4 0  9994,2 53636  53.2165 328.0509 0001014  80.2394 279.8713 15.08838400 35345,6917.885,95.438,540.452,539.049,0.0
53636.0,STARLINK-4586,PAYLOAD,2023-04-09 22:04:28,15.08840753,0.0001014,53.2164,323.8876,84.7174,275.3933,7.781e-05,9.51e-06,0.0,0 STARLINK-4586,1 53636U 22104BA  23099.91977509  .00000951  00000-0  77810-4 0  9994,2 53636  53.2164 323.8876 0001014  84.7174 275.3933 15.08840753 34460,6917.878,95.438,540.445,539.042,0.0
53636.0,STARLINK-4586,PAYLOAD,2023-04-10 01:15:14,15.0884574,0.0001047,53.2164,323.2939,92.1085,268.0027,0.00016068,2.271e-05,0.0,0 STARLINK-4586,1 53636U 22104BA  23100.05225304  .00002271  00000-0  16068-3 0  9995,2 53636  53.2164 323.2939 0001047  92.1085 268.0027 15.08845740 35504,6917.863,95.437,540.452,539.004,0.0
53636.0,STARLINK-4586,PAYLOAD,2023-04-10 23:30:38,15.08846579,0.0001069,53.2162,319.1303,93.3555,266.7559,7.0884e-05,8.41e-06,0.0,0 STARLINK-4586,1 53636U 22104BA  23100.97961217  .00000841  00000-0  70884-4 0  9994,2 53636  53.2162 319.1303 0001069  93.3555 266.7559 15.08846579 35641,6917.86,95.437,540.465,538.986,0.0
53636.0,STARLINK-4586,PAYLOAD,2023-04-12 00:56:49,15.08837009,0.0001066,53.2162,314.3721,94.6298,265.4816,-4.6981e-05,-1.035e-05,0.0,0 STARLINK-4586,1 53636U 22104BA  23102.03945815 -.00001035  00000-0 -46981-4 0  9998,2 53636  53.2162 314.3721 0001066  94.6298 265.4816 15.08837009 34781,6917.89,95.438,540.492,539.017,0.0
53636.0,STARLINK-4586,PAYLOAD,2023-04-13 00:47:36,15.08848789,0.0001235,53.2174,309.9107,80.7324,279.3808,-6.3313e-06,-3.89e-06,0.0,0 STARLINK-4586,1 53636U 22104BA  23103.03305771 -.00000389  00000-0 -63313-5 0  9990,2 53636  53.2174 309.9107 0001235  80.7324 279.3808 15.08848789 35958,6917.854,95.437,540.573,538.864,0.0
53636.0,STARLINK-4586,PAYLOAD,2023-04-13 16:41:27,15.08846799,0.0001528,53.2155,306.9403,61.4622,298.6524,0.00010018,1.307e-05,0.0,0 STARLINK-4586,1 53636U 22104BA  23103.69545917  .00001307  00000-0  10018-3 0  9991,2 53636  53.2155 306.9403 0001528  61.4622 298.6524 15.08846799 35032,6917.86,95.437,540.782,538.668,0.0
53636.0,STARLINK-4586,PAYLOAD,2023-04-13 19:52:13,15.08853467,0.000102,53.2169,306.3433,69.4493,290.6608,0.00020474,2.973e-05,0.0,0 STARLINK-4586,1 53636U 22104BA  23103.82793034  .00002973  00000-0  20474-3 0  9998,2 53636  53.2169 306.3433 0001020  69.4493 290.6608 15.08853467 35052,6917.839,95.437,540.41,538.999,0.0
